OBJECT_NAME,OBJECT_ID,EPOCH,MEAN_MOTION,ECCENTRICITY,INCLINATION,RA_OF_ASC_NODE,ARG_OF_PERICENTER,MEAN_ANOMALY,EPHEMERIS_TYPE,CLASSIFICATION_TYPE,NORAD_CAT_ID,ELEMENT_SET_NO,REV_AT_EPOCH,BSTAR,MEAN_MOTION_DOT,MEAN_MOTION_DDOT
HAWK-6B,2023-011A,2026-07-17T08:17:39.242976,15.23165784,.0004409,40.4974,176.1324,251.5495,108.4835,0,U,55324,999,19244,.11253E-3,.252E-4,0
HAWK-6C,2023-011C,2026-07-17T14:34:24.200256,15.23166774,.0004929,40.4965,171.4414,246.9733,113.0556,0,U,55326,999,19249,.97072E-4,.2146E-4,0
HAWK-6A,2023-011D,2026-07-17T08:16:47.864352,15.23165655,.0004531,40.4975,174.5982,242.4920,117.5429,0,U,55327,999,19245,.10543E-3,.2348E-4,0
HAWK-7A,2023-054P,2026-07-17T02:42:55.220832,15.27644350,.00012326,97.2658,84.6895,321.9127,38.2026,0,U,56191,999,18159,.11158353E-3,.2943E-4,0
HAWK-7B,2023-054R,2026-07-17T16:51:44.203680,15.27645853,.0001051,97.2682,83.5386,10.8602,349.2660,0,U,56193,999,18168,.10686E-3,.2815E-4,0
HAWK-7C,2023-054Y,2026-07-17T15:17:13.792416,15.27648156,.0000687,97.2658,84.2340,342.1037,18.0178,0,U,56200,999,18167,.10699E-3,.2819E-4,0
